{"fetched_at":"2026-03-29T02:12:04Z","count":15717,"tles":[{"name":"STARLINK-2420","line1":"1 47831U 21018AW  26087.57972155  .00000727  00000+0  67699-4 0  9995","line2":"2 47831  53.0557 151.8194 0001225  94.8482 265.2647 15.06403123279706","category":"Starlink"}]}